ONEWEB-0395             
1 50475U 21132G   25166.56106161  .00000529  00000+0  14577-2 0  9997
2 50475  87.8840  94.1634 0002171  70.4469 289.6893 13.11417454167668
ONEWEB-0396             
1 50476U 21132H   25166.91155094  .00000115  00000+0  25922-3 0  9994
2 50476  87.9147  48.2386 0001734  76.4141 283.7184 13.18688448173363
ONEWEB-0397             
1 50477U 21132J   25166.92577533  .00000106  00000+0  23575-3 0  9994
2 50477  87.9143  48.2363 0001640  81.2831 278.8487 13.18688132173340
ONEWEB-0398             
1 50478U 21132K   25166.75772985 -.00000361  00000+0 -10548-2 0  9994
2 50478  87.8838  94.0887 0002452  76.9292 283.2109 13.11418039167585
ONEWEB-0399             
1 50479U 21132L   25166.74415929 -.00000686  00000+0 -19716-2 0  9992
2 50479  87.8839  94.1148 0001688  73.8978 286.2336 13.11416314167573
ONEWEB-0400             
1 50480U 21132M   25166.90523236  .00000067  00000+0  13711-3 0  9994
2 50480  87.9147  48.2320 0002042  79.3982 280.7380 13.18684664173332
ONEWEB-0401             
1 50481U 21132N   25166.94791980 -.00000010  00000+0 -57224-4 0  9990
2 50481  87.9150  48.2168 0001661  84.8911 275.2411 13.18686995173340
ONEWEB-0402             
1 50482U 21132P   25166.91314746  .00000112  00000+0  25131-3 0  9991
2 50482  87.9141  48.2198 0001394  95.9519 264.1772 13.18687940173364
